EUTELSAT 115 WEST B     
1 40425U 15010B   25200.42058593 -.00000020  00000+0  00000+0 0  9998
2 40425   0.0070 200.9363 0000255 292.4798 200.5562  1.00270570 38058
EUTELSAT 8 WEST B       
1 40875U 15039B   25200.41176733 -.00000061  00000+0  00000+0 0  9999
2 40875   0.0635  11.8035 0003709 103.8286 322.0501  1.00272061 36321
EUTELSAT 9B             
1 41310U 16005A   25200.55774456  .00000065  00000+0  00000+0 0  9992
2 41310   0.0440  68.8057 0001049  55.8388  22.7068  1.00271578 34782
EUTELSAT 65 WEST A      
1 41382U 16014A   25200.54318449 -.00000272  00000+0  00000+0 0  9997
2 41382   0.0614 323.4036 0002278 155.5665 308.9385  1.00272856 34200
EUTELSAT 117 WEST B     
1 41589U 16038B   25200.42058593 -.00000007  00000+0  00000+0 0  9996
2 41589   0.0068 166.6853 0000269 292.6434 232.5400  1.00270730 33322
EUTELSAT 172B           
1 42741U 17029B   25199.61454998  .00000000  00000+0  00000+0 0  9997
2 42741   0.0143 122.1467 0000212  84.8526 122.8925  1.00270882 30380
EUTELSAT 7C             
1 44334U 19034B   25200.55739789  .00000052  00000+0  00000+0 0  9992
2 44334   0.0720 192.7370 0003166 271.9499  40.5560  1.00270285  3508
EUTELSAT 5 WEST B       
1 44624U 19067A   25200.34098303 -.00000038  00000+0  00000+0 0  9992
2 44624   0.0877 314.8060 0003014 166.6681 293.6435  1.00271667 21104
